{
  "version": 0.6,
  "generator": "Overpass API 0.7.56.3 eb200aeb",
  "osm3s": {
    "timestamp_osm_base": "2020-07-13T15:10:02Z",
    "timestamp_areas_base": "2020-07-13T13:12:03Z",
    "copyright": "The data included in this document is from www.openstreetmap.org. The data is made available under ODbL."
  },
  "elements": [
    {
      "type": "node",
      "id": 2494929981,
      "lat": 37.5448219,
      "lon": 127.1193829,
      "tags": {
        "amenity": "bicycle_rental",
        "name": "Bicycle park",
        "name:ko": "광나루자전거공원"
      }
    },
    {
      "type": "node",
      "id": 2712656848,
      "lat": 37.5564289,
      "lon": 126.8940488,
      "tags": {
        "amenity": "bicycle_rental",
        "name": "Seongsandaekyo"
      }
    },
    {
      "type": "node",
      "id": 2830778635,
      "lat": 37.5312099,
      "lon": 126.8760209,
      "tags": {
        "amenity": "bicycle_rental",
        "name": "양천구 자전거 무료대여소",
        "note": "1. 자전거 대여 방법   1> 자전거 이용대장 작성   2> 신분증 확인   3> 휴대전화 확인 (불가 시 자택 통화 확인)",
        "operator": "09:00 ~ 12:00, 13:00 ~ 17:00"
      }
    },
    {
      "type": "node",
      "id": 3414087346,
      "lat": 37.565158,
      "lon": 126.880221,
      "tags": {
        "amenity": "bicycle_rental"
      }
    },
    {
      "type": "node",
      "id": 3693412479,
      "lat": 37.4715436,
      "lon": 127.0506421,
      "tags": {
        "amenity": "bicycle_rental",
        "name": "구룡사 삼거리"
      }
    },
    {
      "type": "node",
      "id": 3693412487,
      "lat": 37.4784426,
      "lon": 127.0443113,
      "tags": {
        "amenity": "bicycle_rental",
        "name": "삼호물산 맞은편"
      }
    },
    {
      "type": "node",
      "id": 3730146803,
      "lat": 37.4839943,
      "lon": 127.0341501,
      "tags": {
        "amenity": "bicycle_rental",
        "name": "양재역 10번 11번 출구 사이"
      }
    },
    {
      "type": "node",
      "id": 4392445391,
      "lat": 37.5653164,
      "lon": 127.0075405,
      "tags": {
        "amenity": "bicycle_rental"
      }
    },
    {
      "type": "node",
      "id": 4392453991,
      "lat": 37.5690063,
      "lon": 127.009795,
      "tags": {
        "amenity": "bicycle_rental"
      }
    },
    {
      "type": "node",
      "id": 4392474793,
      "lat": 37.5710496,
      "lon": 126.9980645,
      "tags": {
        "amenity": "bicycle_rental"
      }
    },
    {
      "type": "node",
      "id": 4392474890,
      "lat": 37.5758545,
      "lon": 126.973893,
      "tags": {
        "amenity": "bicycle_rental",
        "name": "경복궁역 4번출구 뒤",
        "ref": "302"
      }
    },
    {
      "type": "node",
      "id": 4392476992,
      "lat": 37.5754742,
      "lon": 126.9785236,
      "tags": {
        "amenity": "bicycle_rental",
        "name": "광화문시민열린마당",
        "name:en": "Gwanghwamun Civic Park",
        "name:ko": "광화문시민열린마당",
        "ref": "369"
      }
    },
    {
      "type": "node",
      "id": 4392492091,
      "lat": 37.5733689,
      "lon": 126.987547,
      "tags": {
        "amenity": "bicycle_rental"
      }
    },
    {
      "type": "node",
      "id": 4392492191,
      "lat": 37.5661139,
      "lon": 126.9834916,
      "tags": {
        "amenity": "bicycle_rental",
        "name": "을지로입구역 4번출구 앞",
        "ref": "320"
      }
    },
    {
      "type": "node",
      "id": 4392517589,
      "lat": 37.5612973,
      "lon": 126.9807812,
      "tags": {
        "amenity": "bicycle_rental",
        "name": "신세계백화점 본점 앞",
        "ref": "324"
      }
    },
    {
      "type": "node",
      "id": 4392549190,
      "lat": 37.5797304,
      "lon": 126.9807378,
      "tags": {
        "amenity": "bicycle_rental",
        "name": "국립현대미술관",
        "name:en": "National Museum of Contemporary Art",
        "ref": "314"
      }
    },
    {
      "type": "node",
      "id": 4400723291,
      "lat": 37.5676828,
      "lon": 126.9844172,
      "tags": {
        "amenity": "bicycle_rental"
      }
    },
    {
      "type": "node",
      "id": 4400727591,
      "lat": 37.5695543,
      "lon": 126.9825183,
      "tags": {
        "amenity": "bicycle_rental",
        "name": "종각역 5번출구",
        "ref": "385"
      }
    },
    {
      "type": "node",
      "id": 4419871482,
      "lat": 37.5592102,
      "lon": 126.9344593,
      "tags": {
        "amenity": "bicycle_rental",
        "capacity": "15",
        "network": "Bike Seoul",
        "operator": "Bike Seoul"
      }
    },
    {
      "type": "node",
      "id": 4627812844,
      "lat": 37.5717674,
      "lon": 126.9746612,
      "tags": {
        "amenity": "bicycle_rental",
        "name": "광화문역 1번출구 앞",
        "ref": "303"
      }
    },
    {
      "type": "node",
      "id": 4627812845,
      "lat": 37.5706917,
      "lon": 126.9765012,
      "tags": {
        "amenity": "bicycle_rental",
        "name": "광화문역 7번출구 앞",
        "name:en": "Gwanghwamun Station Exit 7",
        "ref": "306"
      }
    },
    {
      "type": "node",
      "id": 4627812847,
      "lat": 37.5724845,
      "lon": 126.9782846,
      "tags": {
        "amenity": "bicycle_rental",
        "name": "종로구청 옆",
        "ref": "305"
      }
    },
    {
      "type": "node",
      "id": 4627812848,
      "lat": 37.5701968,
      "lon": 126.971694,
      "tags": {
        "amenity": "bicycle_rental",
        "name": "서울역사박물관 앞",
        "name:en": "In front of Seoul Museum of History",
        "ref": "307"
      }
    },
    {
      "type": "node",
      "id": 4627812849,
      "lat": 37.5699614,
      "lon": 126.9739519,
      "tags": {
        "amenity": "bicycle_rental",
        "name": "광화문 S타워 앞",
        "ref": "308"
      }
    },
    {
      "type": "node",
      "id": 4627812850,
      "lat": 37.5698833,
      "lon": 126.9759638,
      "tags": {
        "amenity": "bicycle_rental",
        "name": "광화문역 6번출구 옆",
        "ref": "309"
      }
    },
    {
      "type": "node",
      "id": 4627812851,
      "lat": 37.5741285,
      "lon": 126.9729345,
      "tags": {
        "amenity": "bicycle_rental",
        "name": "KEB 하나은행(내자동 지점) 앞",
        "ref": "350"
      }
    },
    {
      "type": "node",
      "id": 4627812852,
      "lat": 37.5757958,
      "lon": 126.9715579,
      "tags": {
        "amenity": "bicycle_rental",
        "name": "경복궁역 7번출구 앞",
        "ref": "301"
      }
    },
    {
      "type": "node",
      "id": 4627812853,
      "lat": 37.5762565,
      "lon": 126.9688969,
      "tags": {
        "amenity": "bicycle_rental",
        "capacity": "2",
        "name": "서울 자전거 따릉이 대여소 -사직동주민센터",
        "name:en": "Seoul Bicycle Rental Company-Sajik-dong Community Center",
        "ref": "349"
      }
    },
    {
      "type": "node",
      "id": 4627812854,
      "lat": 37.5687532,
      "lon": 126.9771836,
      "tags": {
        "amenity": "bicycle_rental",
        "name": "청계광장 옆",
        "ref": "310"
      }
    },
    {
      "type": "node",
      "id": 4627812855,
      "lat": 37.5666459,
      "lon": 126.9772804,
      "tags": {
        "amenity": "bicycle_rental",
        "bicycles": "25",
        "name": "서울광장 옆",
        "ref": "311"
      }
    },
    {
      "type": "node",
      "id": 4627812856,
      "lat": 37.5686536,
      "lon": 126.9822422,
      "tags": {
        "amenity": "bicycle_rental",
        "name": "광교사거리 남측",
        "ref": "318"
      }
    },
    {
      "type": "node",
      "id": 4627812858,
      "lat": 37.5692172,
      "lon": 126.9792597,
      "tags": {
        "amenity": "bicycle_rental",
        "name": "SK 서린빌딩 앞",
        "ref": "368"
      }
    },
    {
      "type": "node",
      "id": 4627812859,
      "lat": 37.5653189,
      "lon": 126.9841484,
      "tags": {
        "amenity": "bicycle_rental",
        "name": "KEB 하나은행 본점 앞",
        "ref": "321"
      }
    },
    {
      "type": "node",
      "id": 4627812860,
      "lat": 37.5646092,
      "lon": 126.9768034,
      "tags": {
        "amenity": "bicycle_rental",
        "name": "시청역 1번출구 뒤",
        "ref": "312"
      }
    },
    {
      "type": "node",
      "id": 4627812861,
      "lat": 37.5630745,
      "lon": 126.9745677,
      "tags": {
        "amenity": "bicycle_rental",
        "name": "시청역(2호선) 9번출구 뒤",
        "ref": "370"
      }
    },
    {
      "type": "node",
      "id": 4627812862,
      "lat": 37.5642457,
      "lon": 126.9865143,
      "tags": {
        "amenity": "bicycle_rental",
        "name": "명동성당 앞",
        "name:ja": "明洞聖堂前",
        "name:ko": "명동성당 앞",
        "ref": "322"
      }
    },
    {
      "type": "node",
      "id": 4646254592,
      "lat": 37.5646543,
      "lon": 126.9768134,
      "tags": {
        "amenity": "bicycle_rental"
      }
    },
    {
      "type": "node",
      "id": 4681527912,
      "lat": 37.5468937,
      "lon": 126.8728121,
      "tags": {
        "amenity": "bicycle_rental"
      }
    },
    {
      "type": "node",
      "id": 4686192483,
      "lat": 37.5482652,
      "lon": 127.0257962,
      "tags": {
        "amenity": "bicycle_rental",
        "opening_hours": "24/7",
        "operator": "Seoul City"
      }
    },
    {
      "type": "node",
      "id": 4717661013,
      "lat": 37.5717682,
      "lon": 126.9774347,
      "tags": {
        "amenity": "bicycle_rental",
        "bicycles": "7",
        "name": "광화문역 2번출구 앞",
        "name:en": "Gwanghwamun Station Exit2",
        "phone": "+82 2 1599 0120",
        "ref": "304",
        "website": "https://www.bikeseoul.com/"
      }
    },
    {
      "type": "node",
      "id": 4717687434,
      "lat": 37.5698903,
      "lon": 126.9817651,
      "tags": {
        "amenity": "bicycle_rental",
        "bicycles": "12",
        "name": "종각역 1번출고 앞",
        "phone": "+82 2 1599 0120",
        "website": "https://www.bikeseoul.com/"
      }
    },
    {
      "type": "node",
      "id": 4717702751,
      "lat": 37.5686355,
      "lon": 126.9823648,
      "tags": {
        "amenity": "bicycle_rental",
        "bicycles": "10",
        "name": "광교사사거리 남측",
        "name:en": "South side of Gwanggyo Intersection",
        "phone": "+82 2 1599 0120",
        "ref": "318",
        "website": "https://www.bikeseoul.com/"
      }
    },
    {
      "type": "node",
      "id": 4717952041,
      "lat": 37.5659382,
      "lon": 126.9877992,
      "tags": {
        "amenity": "bicycle_rental",
        "bicycles": "7",
        "name": "을지로2가 사거리 남측",
        "name:en": "South side of Euljiro 2-ga Intersection",
        "phone": "+82 2 1599 0120",
        "ref": "332",
        "website": "https://www.bikeseoul.com/"
      }
    },
    {
      "type": "node",
      "id": 4720111042,
      "lat": 37.5687398,
      "lon": 126.9772361,
      "tags": {
        "amenity": "bicycle_rental",
        "capacity": "10",
        "name": "청계광장 옆",
        "name:en": "Beside Cheonggye Plaza",
        "name:ko": "청계광장 옆",
        "ref": "310"
      }
    },
    {
      "type": "node",
      "id": 4878793868,
      "lat": 37.5828462,
      "lon": 127.060276,
      "tags": {
        "amenity": "bicycle_rental"
      }
    },
    {
      "type": "node",
      "id": 4922398721,
      "lat": 37.5648087,
      "lon": 126.9896369,
      "tags": {
        "amenity": "bicycle_rental"
      }
    },
    {
      "type": "node",
      "id": 4922398921,
      "lat": 37.5710882,
      "lon": 126.9975005,
      "tags": {
        "amenity": "bicycle_rental"
      }
    },
    {
      "type": "node",
      "id": 4929937121,
      "lat": 37.5804995,
      "lon": 127.0449477,
      "tags": {
        "amenity": "bicycle_rental"
      }
    },
    {
      "type": "node",
      "id": 4929937222,
      "lat": 37.4972507,
      "lon": 127.0255782,
      "tags": {
        "amenity": "bicycle_rental"
      }
    },
    {
      "type": "node",
      "id": 4929937321,
      "lat": 37.5569822,
      "lon": 126.9242362,
      "tags": {
        "amenity": "bicycle_rental"
      }
    },
    {
      "type": "node",
      "id": 4929937521,
      "lat": 37.5190509,
      "lon": 127.0500278,
      "tags": {
        "amenity": "bicycle_rental"
      }
    },
    {
      "type": "node",
      "id": 4929972321,
      "lat": 37.5626049,
      "lon": 126.9930871,
      "tags": {
        "amenity": "bicycle_rental"
      }
    },
    {
      "type": "node",
      "id": 4932444324,
      "lat": 37.505383,
      "lon": 127.0242065,
      "tags": {
        "amenity": "bicycle_rental"
      }
    },
    {
      "type": "node",
      "id": 4932451021,
      "lat": 37.523955,
      "lon": 127.0217331,
      "tags": {
        "amenity": "bicycle_rental"
      }
    },
    {
      "type": "node",
      "id": 4932465521,
      "lat": 37.5284488,
      "lon": 127.0384448,
      "tags": {
        "amenity": "bicycle_rental"
      }
    },
    {
      "type": "node",
      "id": 4934958326,
      "lat": 37.5504223,
      "lon": 126.9148652,
      "tags": {
        "amenity": "bicycle_rental"
      }
    },
    {
      "type": "node",
      "id": 4937780621,
      "lat": 37.5575632,
      "lon": 126.9730613,
      "tags": {
        "amenity": "bicycle_rental"
      }
    },
    {
      "type": "node",
      "id": 4937780821,
      "lat": 37.5558369,
      "lon": 126.9730777,
      "tags": {
        "amenity": "bicycle_rental"
      }
    },
    {
      "type": "node",
      "id": 4957199023,
      "lat": 37.5009482,
      "lon": 127.0177852,
      "tags": {
        "amenity": "bicycle_rental"
      }
    },
    {
      "type": "node",
      "id": 4993806921,
      "lat": 37.5187189,
      "lon": 127.049359,
      "tags": {
        "amenity": "bicycle_rental"
      }
    },
    {
      "type": "node",
      "id": 5091780650,
      "lat": 37.5129189,
      "lon": 127.1009331,
      "tags": {
        "amenity": "bicycle_rental"
      }
    },
    {
      "type": "node",
      "id": 5140461069,
      "lat": 37.5741534,
      "lon": 127.0458931,
      "tags": {
        "amenity": "bicycle_rental"
      }
    },
    {
      "type": "node",
      "id": 5224129144,
      "lat": 37.5474811,
      "lon": 126.9383258,
      "tags": {
        "amenity": "bicycle_rental",
        "name": "122. 신성기사식당 앞",
        "network": "서울자전거"
      }
    },
    {
      "type": "node",
      "id": 5224130895,
      "lat": 37.5493726,
      "lon": 126.9389891,
      "tags": {
        "amenity": "bicycle_rental",
        "network": "서울자전거"
      }
    },
    {
      "type": "node",
      "id": 5224130896,
      "lat": 37.5509146,
      "lon": 126.936735,
      "tags": {
        "amenity": "bicycle_rental",
        "name": "124. 서강대 정문 건너편",
        "network": "서울자전거"
      }
    },
    {
      "type": "node",
      "id": 5304280922,
      "lat": 37.5559628,
      "lon": 126.9102618,
      "tags": {
        "amenity": "bicycle_rental"
      }
    },
    {
      "type": "node",
      "id": 5304281121,
      "lat": 37.5478556,
      "lon": 126.9200001,
      "tags": {
        "amenity": "bicycle_rental"
      }
    },
    {
      "type": "node",
      "id": 5310197021,
      "lat": 37.5491981,
      "lon": 126.9230983,
      "tags": {
        "amenity": "bicycle_rental"
      }
    },
    {
      "type": "node",
      "id": 5457984621,
      "lat": 37.5554264,
      "lon": 126.9367111,
      "tags": {
        "amenity": "bicycle_rental",
        "website": "http://bike Seoul.com"
      }
    },
    {
      "type": "node",
      "id": 5458064421,
      "lat": 37.575796,
      "lon": 126.983091,
      "tags": {
        "amenity": "bicycle_rental",
        "website": "https://www.bikeseoul.com/"
      }
    },
    {
      "type": "node",
      "id": 5547151623,
      "lat": 37.631061,
      "lon": 127.0702833,
      "tags": {
        "amenity": "bicycle_rental",
        "capacity": "15",
        "name": "공릉1단지아파트",
        "operator": "서울자전거 따릉이",
        "payment:app": "yes"
      }
    },
    {
      "type": "node",
      "id": 5547151624,
      "lat": 37.6298093,
      "lon": 127.0766334,
      "tags": {
        "amenity": "bicycle_rental",
        "capacity": "20",
        "name": "과기대 입구(우)",
        "operator": "서울자전거 따릉이",
        "payment:app": "yes"
      }
    },
    {
      "type": "node",
      "id": 5547151671,
      "lat": 37.6264813,
      "lon": 127.0727526,
      "tags": {
        "amenity": "bicycle_rental",
        "capacity": "10",
        "name": "공릉역 1번 출구 앞",
        "operator": "서울자전거 따릉이",
        "payment:app": "yes"
      }
    },
    {
      "type": "node",
      "id": 5576814270,
      "lat": 37.5567664,
      "lon": 126.8980524,
      "tags": {
        "amenity": "bicycle_rental",
        "name": "마포구민체육센터 앞",
        "network": "서울자전거",
        "network:en": "Seoul Bike",
        "ref": "152",
        "source": "survey",
        "website": "https://www.bikeseoul.com/"
      }
    },
    {
      "type": "node",
      "id": 5576814271,
      "lat": 37.5515588,
      "lon": 126.9028676,
      "tags": {
        "amenity": "bicycle_rental",
        "name": "망원2빗물펌프장 앞",
        "network": "서울자전거",
        "network:en": "Seoul Bike",
        "ref": "182",
        "source": "survey",
        "website": "https://www.bikeseoul.com/"
      }
    },
    {
      "type": "node",
      "id": 5618042677,
      "lat": 37.5658887,
      "lon": 126.8464245,
      "tags": {
        "addr:city": "서울시 강서구",
        "addr:housenumber": "30",
        "addr:street": "양천로53길",
        "amenity": "bicycle_rental",
        "capacity": "20",
        "name": "1159. 서서울모터리움앞 따릉이 대여소",
        "operator": "서울자전거 따릉이",
        "website": "https://www.bikeseoul.com/"
      }
    },
    {
      "type": "node",
      "id": 5618095759,
      "lat": 37.5611406,
      "lon": 126.8547839,
      "tags": {
        "amenity": "bicycle_rental",
        "network": "서울자전거 따릉이",
        "operator": "서울자전거 따릉이"
      }
    },
    {
      "type": "node",
      "id": 5620196774,
      "lat": 37.5692482,
      "lon": 126.8484715,
      "tags": {
        "amenity": "bicycle_rental",
        "network": "서울자전거 따릉이"
      }
    },
    {
      "type": "node",
      "id": 5620196775,
      "lat": 37.5705051,
      "lon": 126.849373,
      "tags": {
        "amenity": "bicycle_rental",
        "network": "서울자전거 따릉이"
      }
    },
    {
      "type": "node",
      "id": 5630272537,
      "lat": 37.5372636,
      "lon": 127.0936375,
      "tags": {
        "amenity": "bicycle_rental"
      }
    },
    {
      "type": "node",
      "id": 5670947430,
      "lat": 37.5667415,
      "lon": 126.9972563,
      "tags": {
        "amenity": "bicycle_rental"
      }
    },
    {
      "type": "node",
      "id": 5698838121,
      "lat": 37.537249,
      "lon": 126.9042338,
      "tags": {
        "amenity": "bicycle_rental",
        "opening_hours": "Mo-Su 10:00-20:00"
      }
    },
    {
      "type": "node",
      "id": 5818339847,
      "lat": 37.5677321,
      "lon": 126.8409661,
      "tags": {
        "amenity": "bicycle_rental"
      }
    },
    {
      "type": "node",
      "id": 5840854685,
      "lat": 37.4822213,
      "lon": 126.9420759,
      "tags": {
        "amenity": "bicycle_rental",
        "name": "봉천역 2번출구",
        "ref": "2169"
      }
    },
    {
      "type": "node",
      "id": 5841467529,
      "lat": 37.5246791,
      "lon": 126.937043,
      "tags": {
        "amenity": "bicycle_rental"
      }
    },
    {
      "type": "node",
      "id": 5841467530,
      "lat": 37.5278713,
      "lon": 126.9343843,
      "tags": {
        "amenity": "bicycle_rental"
      }
    },
    {
      "type": "node",
      "id": 5841467531,
      "lat": 37.5299887,
      "lon": 126.9284264,
      "tags": {
        "amenity": "bicycle_rental"
      }
    },
    {
      "type": "node",
      "id": 5841489419,
      "lat": 37.527091,
      "lon": 126.9320589,
      "tags": {
        "amenity": "bicycle_rental"
      }
    },
    {
      "type": "node",
      "id": 5874690785,
      "lat": 37.5472838,
      "lon": 127.0394133,
      "tags": {
        "amenity": "bicycle_rental",
        "operator": "park"
      }
    },
    {
      "type": "node",
      "id": 5942933123,
      "lat": 37.5528211,
      "lon": 126.8366112,
      "tags": {
        "amenity": "bicycle_rental",
        "capacity": "10",
        "name": "명덕고교 입구(영종빌딩) 따릉이 대여소",
        "name:en": "Entrance of Myoungduk High School(Yeongjong Building)",
        "network": "따릉이",
        "note": "1125",
        "operator": "서울시"
      }
    },
    {
      "type": "node",
      "id": 5947890421,
      "lat": 37.4862719,
      "lon": 126.8387785,
      "tags": {
        "amenity": "bicycle_rental",
        "name": "천왕역 1번 출입구 앞",
        "network": "Seoul Bike",
        "operator": "서울특별시",
        "ref": "1977"
      }
    },
    {
      "type": "node",
      "id": 6218236535,
      "lat": 37.5373587,
      "lon": 126.8866174,
      "tags": {
        "amenity": "bicycle_rental",
        "name": "749. 이대 목동병원 앞",
        "operator": "서울자전거 따릉이",
        "payment:carrier_billing": "yes",
        "payment:credit_cards": "yes",
        "payment:kakaopay": "yes",
        "payment:payco": "yes"
      }
    },
    {
      "type": "node",
      "id": 6218503126,
      "lat": 37.5377547,
      "lon": 126.8815246,
      "tags": {
        "amenity": "bicycle_rental",
        "name": "755. 목동1단지아파트 상가 앞 (월촌중학교 버스정류소 옆)",
        "operator": "서울자전거 따릉이",
        "payment:carrier_billing": "yes",
        "payment:credit_cards": "yes",
        "payment:kakaopay": "yes",
        "payment:payco": "yes"
      }
    },
    {
      "type": "node",
      "id": 6271058711,
      "lat": 37.557532,
      "lon": 126.9185823,
      "tags": {
        "amenity": "bicycle_rental",
        "capacity": "6",
        "fee": "yes",
        "name": "따릉이 신한은행 서교동금융센터앞",
        "operator": "서울바이크"
      }
    },
    {
      "type": "node",
      "id": 6356890068,
      "lat": 37.5855771,
      "lon": 127.0016204,
      "tags": {
        "amenity": "bicycle_rental",
        "capacity": "10",
        "fee": "yes",
        "name": "동성중교앞",
        "name:en": "In Front of Dongsung Middle School",
        "network": "따릉이",
        "operator": "따릉이",
        "payment:app": "yes",
        "website": "https://www.bikeseoul.com/"
      }
    },
    {
      "type": "node",
      "id": 6422278386,
      "lat": 37.5692404,
      "lon": 126.9707983,
      "tags": {
        "amenity": "bicycle_rental",
        "opening_hours": "24/7",
        "operator": "정동사거리"
      }
    },
    {
      "type": "node",
      "id": 6422278387,
      "lat": 37.569926,
      "lon": 126.9773933,
      "tags": {
        "amenity": "bicycle_rental"
      }
    },
    {
      "type": "node",
      "id": 6491303640,
      "lat": 37.495801,
      "lon": 127.1397446,
      "tags": {
        "amenity": "bicycle_rental",
        "name": "거여 마천 자전거대여소",
        "operator": "송파구"
      }
    },
    {
      "type": "node",
      "id": 6508035011,
      "lat": 37.5267759,
      "lon": 127.1301022,
      "tags": {
        "amenity": "bicycle_rental"
      }
    },
    {
      "type": "node",
      "id": 6508035012,
      "lat": 37.5282033,
      "lon": 127.1268836,
      "tags": {
        "amenity": "bicycle_rental"
      }
    },
    {
      "type": "node",
      "id": 6508035013,
      "lat": 37.5306969,
      "lon": 127.120982,
      "tags": {
        "amenity": "bicycle_rental"
      }
    },
    {
      "type": "node",
      "id": 6508035014,
      "lat": 37.5270927,
      "lon": 127.121808,
      "tags": {
        "amenity": "bicycle_rental"
      }
    },
    {
      "type": "node",
      "id": 6588883812,
      "lat": 37.4774862,
      "lon": 127.1415077,
      "tags": {
        "amenity": "bicycle_rental",
        "capacity": "8",
        "name": "위례아이파크 101동 맞은편 대여소"
      }
    },
    {
      "type": "node",
      "id": 6588883813,
      "lat": 37.4744159,
      "lon": 127.1406524,
      "tags": {
        "amenity": "bicycle_rental",
        "capacity": "10",
        "name": "위례중앙푸르지오 1단지 앞 대여소"
      }
    },
    {
      "type": "node",
      "id": 6588883814,
      "lat": 37.4745742,
      "lon": 127.1375015,
      "tags": {
        "amenity": "bicycle_rental",
        "capacity": "10",
        "name": "위례송파꿈에그린아파트24단지 앞 성벽 다리 밑 대여소"
      }
    },
    {
      "type": "node",
      "id": 6588883815,
      "lat": 37.4805007,
      "lon": 127.1370406,
      "tags": {
        "amenity": "bicycle_rental",
        "capacity": "10",
        "name": "장지공영차고지 대여소"
      }
    },
    {
      "type": "node",
      "id": 6588883816,
      "lat": 37.4774449,
      "lon": 127.1444878,
      "tags": {
        "amenity": "bicycle_rental",
        "capacity": "15",
        "name": "위례별 유치원 뒤 대여소"
      }
    },
    {
      "type": "node",
      "id": 6596156016,
      "lat": 37.6265381,
      "lon": 127.0180451,
      "tags": {
        "amenity": "bicycle_rental"
      }
    },
    {
      "type": "node",
      "id": 6696365123,
      "lat": 37.6839952,
      "lon": 127.0457715,
      "tags": {
        "amenity": "bicycle_rental",
        "name": "1729. 파리바게트앞 (구)",
        "name:ko": "1729. 파리바게트앞 (구)",
        "operator": "서울시",
        "operator:type": "public"
      }
    },
    {
      "type": "node",
      "id": 6696365124,
      "lat": 37.6875003,
      "lon": 127.0455594,
      "tags": {
        "amenity": "bicycle_rental",
        "operator": "서울시",
        "operator:type": "public"
      }
    },
    {
      "type": "node",
      "id": 6696365125,
      "lat": 37.6898558,
      "lon": 127.0450441,
      "tags": {
        "amenity": "bicycle_rental",
        "operator": "서울시",
        "operator:type": "public"
      }
    },
    {
      "type": "node",
      "id": 6696365126,
      "lat": 37.6874059,
      "lon": 127.0425171,
      "tags": {
        "amenity": "bicycle_rental",
        "operator": "서울시",
        "operator:type": "public"
      }
    },
    {
      "type": "node",
      "id": 6696365127,
      "lat": 37.6610132,
      "lon": 127.0584198,
      "tags": {
        "amenity": "bicycle_rental",
        "operator": "서울시",
        "operator:type": "public"
      }
    },
    {
      "type": "node",
      "id": 6696365128,
      "lat": 37.665734,
      "lon": 127.0572773,
      "tags": {
        "amenity": "bicycle_rental",
        "operator": "서울시",
        "operator:type": "public"
      }
    },
    {
      "type": "node",
      "id": 6696365129,
      "lat": 37.6652202,
      "lon": 127.0577739,
      "tags": {
        "amenity": "bicycle_rental",
        "operator": "서울시",
        "operator:type": "public"
      }
    },
    {
      "type": "node",
      "id": 7018908676,
      "lat": 37.570154,
      "lon": 126.9914592,
      "tags": {
        "amenity": "bicycle_rental",
        "capacity": "5",
        "description": "위치 : 서울시 종로구 종로3가 137-3\n연락처 : 070-4224-7552\n홈페이지 : https://www.bikeseoul.com/\n위치 : https://place.map.kakao.com/1662940921\n#세운따릉이 #종로3가역 #15번출구",
        "operator": "서울시"
      }
    },
    {
      "type": "node",
      "id": 7218625811,
      "lat": 37.5365122,
      "lon": 127.1255001,
      "tags": {
        "amenity": "bicycle_rental"
      }
    },
    {
      "type": "node",
      "id": 7557498820,
      "lat": 37.6024379,
      "lon": 127.0116043,
      "tags": {
        "amenity": "bicycle_rental"
      }
    },
    {
      "type": "node",
      "id": 7704548276,
      "lat": 37.5601387,
      "lon": 126.8271219,
      "tags": {
        "amenity": "bicycle_rental",
        "network": "따릉이"
      }
    },
    {
      "type": "node",
      "id": 7704548277,
      "lat": 37.5621516,
      "lon": 126.8273888,
      "tags": {
        "amenity": "bicycle_rental",
        "network": "따릉이"
      }
    },
    {
      "type": "node",
      "id": 7704548278,
      "lat": 37.5613833,
      "lon": 126.8301464,
      "tags": {
        "amenity": "bicycle_rental",
        "network": "따릉이"
      }
    },
    {
      "type": "node",
      "id": 7704548279,
      "lat": 37.5594803,
      "lon": 126.8318612,
      "tags": {
        "amenity": "bicycle_rental",
        "network": "따릉이"
      }
    },
    {
      "type": "way",
      "id": 468617418,
      "nodes": [
        4631214691,
        4631271453,
        4631214692,
        4631214693,
        4631214694,
        4631214691
      ],
      "tags": {
        "amenity": "bicycle_rental",
        "name": "자전거 대여소"
      }
    },
    {
      "type": "way",
      "id": 807013766,
      "nodes": [
        7546590159,
        7546590160,
        7546590161,
        7546590162,
        7546590159
      ],
      "tags": {
        "amenity": "bicycle_rental",
        "fee": "no",
        "name": "성동구 옥수자전거대여소",
        "operator": "성동구"
      }
    },
    {
      "type": "node",
      "id": 7546590159,
      "lat": 37.5414856,
      "lon": 127.019661
    },
    {
      "type": "node",
      "id": 7546590160,
      "lat": 37.5413895,
      "lon": 127.0197407
    },
    {
      "type": "node",
      "id": 7546590161,
      "lat": 37.5416374,
      "lon": 127.0202606
    },
    {
      "type": "node",
      "id": 7546590162,
      "lat": 37.5417107,
      "lon": 127.0201777
    },
    {
      "type": "node",
      "id": 4631214691,
      "lat": 37.5786993,
      "lon": 127.0719104
    },
    {
      "type": "node",
      "id": 4631214692,
      "lat": 37.5786178,
      "lon": 127.0718219
    },
    {
      "type": "node",
      "id": 4631214693,
      "lat": 37.5785921,
      "lon": 127.0718512
    },
    {
      "type": "node",
      "id": 4631214694,
      "lat": 37.5786848,
      "lon": 127.0719245
    },
    {
      "type": "node",
      "id": 4631271453,
      "lat": 37.5786444,
      "lon": 127.0718562
    }
  ]
}